<?xml version="1.0" encoding="utf-8"?>
<kml>
  <Document>
    <Style id="KN_PARCELE">
      <LineStyle id="">
        <color>FF000000</color>
        <width>2</width>
      </LineStyle>
      <PolyStyle>
        <color>00FFFFFF</color>
      </PolyStyle>
    </Style>
    <Placemark>
      <styleUrl>#KN_PARCELE</styleUrl>
      <Polygon>
        <outerBoundaryIs>
          <LinearRing id="">
            <coordinates>13.8198496021536,46.4855481233337 13.8198938193662,46.4853585635447 13.8186598736325,46.4855666096984 13.8187292571433,46.4857068694332 13.8192509326777,46.4856399209871 13.8198496021536,46.4855481233337 </coordinates>
          </LinearRing>
        </outerBoundaryIs>
      </Polygon>
    </Placemark>
    <Placemark>
      <styleUrl>#KN_PARCELE</styleUrl>
      <Polygon>
        <outerBoundaryIs>
          <LinearRing id="">
            <coordinates>13.825417379378,46.4861393232651 13.8254562699312,46.4861176801061 13.8254607478983,46.4861153868831 13.8255381072553,46.4860735357064 13.8255300304143,46.4860614867896 13.8254846058106,46.48601756492 13.8254517801275,46.4859995037641 13.8254208129463,46.4859858702024 13.8253708718265,46.4859944442121 13.8253432880675,46.4859991092319 13.8252592248402,46.4860135406236 13.8252398761609,46.4860168506927 13.8253821651634,46.4863169216749 13.8255122281932,46.4863136690015 13.8255109235088,46.4863077176021 13.8255046003873,46.4862323480199 13.8254959566637,46.4862284805228 13.825417379378,46.4861393232651 </coordinates>
          </LinearRing>
        </outerBoundaryIs>
      </Polygon>
    </Placemark>
  </Document>
</kml>